[{"OBJECT_NAME":"GJZ 02","OBJECT_ID":"2024-238B","EPOCH":"2026-03-09T22:57:25.494912","MEAN_MOTION":13.75187021,"ECCENTRICITY":0.00076974,"INCLINATION":59.9175,"RA_OF_ASC_NODE":191.0816,"ARG_OF_PERICENTER":96.9704,"MEAN_ANOMALY":263.2179,"EPHEMERIS_TYPE":0,"CLASSIFICATION_TYPE":"U","NORAD_CAT_ID":62291,"ELEMENT_SET_NO":999,"REV_AT_EPOCH":6263,"BSTAR":0.00012934225,"MEAN_MOTION_DOT":5.0e-8,"MEAN_MOTION_DDOT":0},{"OBJECT_NAME":"SL-8 R\/B","OBJECT_ID":"1995-032B","EPOCH":"2026-03-09T17:52:47.324352","MEAN_MOTION":13.74535394,"ECCENTRICITY":0.00243895,"INCLINATION":82.9037,"RA_OF_ASC_NODE":305.0446,"ARG_OF_PERICENTER":7.5674,"MEAN_ANOMALY":352.5845,"EPHEMERIS_TYPE":0,"CLASSIFICATION_TYPE":"U","NORAD_CAT_ID":23604,"ELEMENT_SET_NO":999,"REV_AT_EPOCH":53862,"BSTAR":0.00012188093,"MEAN_MOTION_DOT":1.31e-6,"MEAN_MOTION_DDOT":0}]
